[
  {
    "OBJECT_NAME": "STARLINK-4483",
    "OBJECT_ID": "22101F",
    "EPOCH": "2025-11-11T02:23:08.966976",
    "MEAN_MOTION": 15.08833849,
    "ECCENTRICITY": 0.0001253,
    "INCLINATION": 53.2162,
    "RA_OF_ASC_NODE": 246.4974,
    "ARG_OF_PERICENTER": 94.3481,
    "MEAN_ANOMALY": 265.7655,
    "EPHEMERIS_TYPE": 0,
    "CLASSIFICATION_TYPE": "U",
    "NORAD_CAT_ID": 53532,
    "ELEMENT_SET_NO": 999,
    "REV_AT_EPOCH": 17826,
    "BSTAR": 0.00018615000000000003,
    "MEAN_MOTION_DOT": 2.676e-05,
    "MEAN_MOTION_DDOT": 0.0,
    "TLE_LINE1": "1 53532U 22101F   25315.09940934  .00002676  00000+0  18615-3 0  9992",
    "TLE_LINE2": "2 53532  53.2162 246.4974 0001253  94.3481 265.7655 15.08833849178264",
    "COMMENT": "Grouped by shell and plane from TLE"
  },
  {
    "OBJECT_NAME": "STARLINK-4493",
    "OBJECT_ID": "22101G",
    "EPOCH": "2025-11-11T05:28:37.020864",
    "MEAN_MOTION": 15.08841045,
    "ECCENTRICITY": 0.0001423,
    "INCLINATION": 53.2171,
    "RA_OF_ASC_NODE": 245.9058,
    "ARG_OF_PERICENTER": 91.9157,
    "MEAN_ANOMALY": 268.1998,
    "EPHEMERIS_TYPE": 0,
    "CLASSIFICATION_TYPE": "U",
    "NORAD_CAT_ID": 53533,
    "ELEMENT_SET_NO": 999,
    "REV_AT_EPOCH": 17828,
    "BSTAR": 0.0,
    "MEAN_MOTION_DOT": -1.919e-05,
    "MEAN_MOTION_DDOT": 0.0,
    "TLE_LINE1": "1 53533U 22101G   25315.22820626 -.00001919  00000+0 -10251-3 0  9992",
    "TLE_LINE2": "2 53533  53.2171 245.9058 0001423  91.9157 268.1998 15.08841045178280",
    "COMMENT": "Grouped by shell and plane from TLE"
  },
  {
    "OBJECT_NAME": "STARLINK-4138",
    "OBJECT_ID": "22101J",
    "EPOCH": "2025-11-11T05:23:19.033440",
    "MEAN_MOTION": 15.08852776,
    "ECCENTRICITY": 0.0001324,
    "INCLINATION": 53.2158,
    "RA_OF_ASC_NODE": 245.9317,
    "ARG_OF_PERICENTER": 92.401,
    "MEAN_ANOMALY": 267.7133,
    "EPHEMERIS_TYPE": 0,
    "CLASSIFICATION_TYPE": "U",
    "NORAD_CAT_ID": 53535,
    "ELEMENT_SET_NO": 999,
    "REV_AT_EPOCH": 17828,
    "BSTAR": 0.00017887,
    "MEAN_MOTION_DOT": 2.561e-05,
    "MEAN_MOTION_DDOT": 0.0,
    "TLE_LINE1": "1 53535U 22101J   25315.22452585  .00002561  00000+0  17887-3 0  9993",
    "TLE_LINE2": "2 53535  53.2158 245.9317 0001324  92.4010 267.7133 15.08852776178288",
    "COMMENT": "Grouped by shell and plane from TLE"
  },
  {
    "OBJECT_NAME": "STARLINK-4120",
    "OBJECT_ID": "22101L",
    "EPOCH": "2025-11-11T05:24:42.347232",
    "MEAN_MOTION": 15.08837143,
    "ECCENTRICITY": 0.0001384,
    "INCLINATION": 53.2166,
    "RA_OF_ASC_NODE": 245.8983,
    "ARG_OF_PERICENTER": 89.7034,
    "MEAN_ANOMALY": 270.4117,
    "EPHEMERIS_TYPE": 0,
    "CLASSIFICATION_TYPE": "U",
    "NORAD_CAT_ID": 53537,
    "ELEMENT_SET_NO": 999,
    "REV_AT_EPOCH": 17828,
    "BSTAR": 0.00016084,
    "MEAN_MOTION_DOT": 2.273e-05,
    "MEAN_MOTION_DDOT": 0.0,
    "TLE_LINE1": "1 53537U 22101L   25315.22549013  .00002273  00000+0  16084-3 0  9996",
    "TLE_LINE2": "2 53537  53.2166 245.8983 0001384  89.7034 270.4117 15.08837143178282",
    "COMMENT": "Grouped by shell and plane from TLE"
  },
  {
    "OBJECT_NAME": "STARLINK-4123",
    "OBJECT_ID": "22101N",
    "EPOCH": "2025-11-11T05:18:01.956672",
    "MEAN_MOTION": 15.08847256,
    "ECCENTRICITY": 0.000169,
    "INCLINATION": 53.2185,
    "RA_OF_ASC_NODE": 245.9473,
    "ARG_OF_PERICENTER": 90.9837,
    "MEAN_ANOMALY": 269.1349,
    "EPHEMERIS_TYPE": 0,
    "CLASSIFICATION_TYPE": "U",
    "NORAD_CAT_ID": 53539,
    "ELEMENT_SET_NO": 999,
    "REV_AT_EPOCH": 17828,
    "BSTAR": 0.00022952,
    "MEAN_MOTION_DOT": 3.367e-05,
    "MEAN_MOTION_DDOT": 0.0,
    "TLE_LINE1": "1 53539U 22101N   25315.22085598  .00003367  00000+0  22952-3 0  9997",
    "TLE_LINE2": "2 53539  53.2185 245.9473 0001690  90.9837 269.1349 15.08847256178283",
    "COMMENT": "Grouped by shell and plane from TLE"
  },
  {
    "OBJECT_NAME": "STARLINK-4485",
    "OBJECT_ID": "22101Q",
    "EPOCH": "2025-11-11T05:07:25.113504",
    "MEAN_MOTION": 15.08857401,
    "ECCENTRICITY": 0.0001625,
    "INCLINATION": 53.2173,
    "RA_OF_ASC_NODE": 245.9805,
    "ARG_OF_PERICENTER": 84.3147,
    "MEAN_ANOMALY": 275.803,
    "EPHEMERIS_TYPE": 0,
    "CLASSIFICATION_TYPE": "U",
    "NORAD_CAT_ID": 53541,
    "ELEMENT_SET_NO": 999,
    "REV_AT_EPOCH": 17897,
    "BSTAR": 0.00020933,
    "MEAN_MOTION_DOT": 3.047e-05,
    "MEAN_MOTION_DDOT": 0.0,
    "TLE_LINE1": "1 53541U 22101Q   25315.21348511  .00003047  00000+0  20933-3 0  9998",
    "TLE_LINE2": "2 53541  53.2173 245.9805 0001625  84.3147 275.8030 15.08857401178971",
    "COMMENT": "Grouped by shell and plane from TLE"
  },
  {
    "OBJECT_NAME": "STARLINK-5684",
    "OBJECT_ID": "23015E",
    "EPOCH": "2025-11-11T05:54:42.327072",
    "MEAN_MOTION": 15.02568994,
    "ECCENTRICITY": 0.0001369,
    "INCLINATION": 43.0046,
    "RA_OF_ASC_NODE": 249.8722,
    "ARG_OF_PERICENTER": 270.974,
    "MEAN_ANOMALY": 89.0946,
    "EPHEMERIS_TYPE": 0,
    "CLASSIFICATION_TYPE": "U",
    "NORAD_CAT_ID": 55453,
    "ELEMENT_SET_NO": 999,
    "REV_AT_EPOCH": 15293,
    "BSTAR": 0.0,
    "MEAN_MOTION_DOT": -7.106e-05,
    "MEAN_MOTION_DDOT": 0.0,
    "TLE_LINE1": "1 55453U 23015E   25315.24632323 -.00007106  00000+0 -51106-3 0  9995",
    "TLE_LINE2": "2 55453  43.0046 249.8722 0001369 270.9740  89.0946 15.02568994152938",
    "COMMENT": "Grouped by shell and plane from TLE"
  },
  {
    "OBJECT_NAME": "STARLINK-5636",
    "OBJECT_ID": "23015F",
    "EPOCH": "2025-11-11T05:45:06.150528",
    "MEAN_MOTION": 15.02546226,
    "ECCENTRICITY": 9.79e-05,
    "INCLINATION": 43.0034,
    "RA_OF_ASC_NODE": 249.8129,
    "ARG_OF_PERICENTER": 266.1593,
    "MEAN_ANOMALY": 93.9138,
    "EPHEMERIS_TYPE": 0,
    "CLASSIFICATION_TYPE": "U",
    "NORAD_CAT_ID": 55454,
    "ELEMENT_SET_NO": 999,
    "REV_AT_EPOCH": 15293,
    "BSTAR": 0.0,
    "MEAN_MOTION_DOT": -7.83e-06,
    "MEAN_MOTION_DDOT": 0.0,
    "TLE_LINE1": "1 55454U 23015F   25315.23965452 -.00000783  00000+0 -42907-4 0  9991",
    "TLE_LINE2": "2 55454  43.0034 249.8129 0000979 266.1593  93.9138 15.02546226152937",
    "COMMENT": "Grouped by shell and plane from TLE"
  },
  {
    "OBJECT_NAME": "STARLINK-5680",
    "OBJECT_ID": "23015G",
    "EPOCH": "2025-11-11T06:04:17.016672",
    "MEAN_MOTION": 15.0257543,
    "ECCENTRICITY": 0.0001408,
    "INCLINATION": 43.0032,
    "RA_OF_ASC_NODE": 249.9223,
    "ARG_OF_PERICENTER": 264.1556,
    "MEAN_ANOMALY": 95.9126,
    "EPHEMERIS_TYPE": 0,
    "CLASSIFICATION_TYPE": "U",
    "NORAD_CAT_ID": 55455,
    "ELEMENT_SET_NO": 999,
    "REV_AT_EPOCH": 15293,
    "BSTAR": 0.0,
    "MEAN_MOTION_DOT": -0.00011731,
    "MEAN_MOTION_DDOT": 0.0,
    "TLE_LINE1": "1 55455U 23015G   25315.25297473 -.00011731  00000+0 -85386-3 0  9997",
    "TLE_LINE2": "2 55455  43.0032 249.9223 0001408 264.1556  95.9126 15.02575430152935",
    "COMMENT": "Grouped by shell and plane from TLE"
  },
  {
    "OBJECT_NAME": "STARLINK-5058",
    "OBJECT_ID": "23015H",
    "EPOCH": "2025-11-11T05:46:41.636352",
    "MEAN_MOTION": 15.02537844,
    "ECCENTRICITY": 0.00016,
    "INCLINATION": 43.0051,
    "RA_OF_ASC_NODE": 249.8293,
    "ARG_OF_PERICENTER": 259.6941,
    "MEAN_ANOMALY": 100.3722,
    "EPHEMERIS_TYPE": 0,
    "CLASSIFICATION_TYPE": "U",
    "NORAD_CAT_ID": 55456,
    "ELEMENT_SET_NO": 999,
    "REV_AT_EPOCH": 15293,
    "BSTAR": 0.00010313,
    "MEAN_MOTION_DOT": 1.19e-05,
    "MEAN_MOTION_DDOT": 0.0,
    "TLE_LINE1": "1 55456U 23015H   25315.24075968  .00001190  00000+0  10313-3 0  9994",
    "TLE_LINE2": "2 55456  43.0051 249.8293 0001600 259.6941 100.3722 15.02537844152934",
    "COMMENT": "Grouped by shell and plane from TLE"
  },
  {
    "OBJECT_NAME": "STARLINK-5682",
    "OBJECT_ID": "23015J",
    "EPOCH": "2025-11-11T05:49:52.995072",
    "MEAN_MOTION": 15.02547148,
    "ECCENTRICITY": 0.0001157,
    "INCLINATION": 43.0035,
    "RA_OF_ASC_NODE": 249.8481,
    "ARG_OF_PERICENTER": 269.9628,
    "MEAN_ANOMALY": 90.1082,
    "EPHEMERIS_TYPE": 0,
    "CLASSIFICATION_TYPE": "U",
    "NORAD_CAT_ID": 55457,
    "ELEMENT_SET_NO": 999,
    "REV_AT_EPOCH": 15293,
    "BSTAR": 0.00015239,
    "MEAN_MOTION_DOT": 1.856e-05,
    "MEAN_MOTION_DDOT": 0.0,
    "TLE_LINE1": "1 55457U 23015J   25315.24297448  .00001856  00000+0  15239-3 0  9995",
    "TLE_LINE2": "2 55457  43.0035 249.8481 0001157 269.9628  90.1082 15.02547148152932",
    "COMMENT": "Grouped by shell and plane from TLE"
  },
  {
    "OBJECT_NAME": "STARLINK-5020",
    "OBJECT_ID": "23015K",
    "EPOCH": "2025-11-11T05:30:43.118208",
    "MEAN_MOTION": 15.02533048,
    "ECCENTRICITY": 0.0001346,
    "INCLINATION": 43.0036,
    "RA_OF_ASC_NODE": 249.7446,
    "ARG_OF_PERICENTER": 267.8906,
    "MEAN_ANOMALY": 92.1782,
    "EPHEMERIS_TYPE": 0,
    "CLASSIFICATION_TYPE": "U",
    "NORAD_CAT_ID": 55458,
    "ELEMENT_SET_NO": 999,
    "REV_AT_EPOCH": 15293,
    "BSTAR": 0.0,
    "MEAN_MOTION_DOT": -1.203e-05,
    "MEAN_MOTION_DDOT": 0.0,
    "TLE_LINE1": "1 55458U 23015K   25315.22966572 -.00001203  00000+0 -73999-4 0  9991",
    "TLE_LINE2": "2 55458  43.0036 249.7446 0001346 267.8906  92.1782 15.02533048152933",
    "COMMENT": "Grouped by shell and plane from TLE"
  },
  {
    "OBJECT_NAME": "STARLINK-5678",
    "OBJECT_ID": "23015M",
    "EPOCH": "2025-11-11T05:32:18.410496",
    "MEAN_MOTION": 15.02549176,
    "ECCENTRICITY": 0.0001989,
    "INCLINATION": 43.0021,
    "RA_OF_ASC_NODE": 249.7559,
    "ARG_OF_PERICENTER": 255.2682,
    "MEAN_ANOMALY": 104.794,
    "EPHEMERIS_TYPE": 0,
    "CLASSIFICATION_TYPE": "U",
    "NORAD_CAT_ID": 55460,
    "ELEMENT_SET_NO": 999,
    "REV_AT_EPOCH": 15293,
    "BSTAR": 0.00010403,
    "MEAN_MOTION_DOT": 1.202e-05,
    "MEAN_MOTION_DDOT": 0.0,
    "TLE_LINE1": "1 55460U 23015M   25315.23076864  .00001202  00000+0  10403-3 0  9998",
    "TLE_LINE2": "2 55460  43.0021 249.7559 0001989 255.2682 104.7940 15.02549176152935",
    "COMMENT": "Grouped by shell and plane from TLE"
  }
]